[{"OBJECT_NAME":"AFR-1","OBJECT_ID":"2023-084AJ","EPOCH":"2026-03-09T23:02:07.499328","MEAN_MOTION":15.27543824,"ECCENTRICITY":0.00099838,"INCLINATION":97.6099,"RA_OF_ASC_NODE":203.4313,"ARG_OF_PERICENTER":334.9676,"MEAN_ANOMALY":25.1077,"EPHEMERIS_TYPE":0,"CLASSIFICATION_TYPE":"U","NORAD_CAT_ID":56964,"ELEMENT_SET_NO":999,"REV_AT_EPOCH":15207,"BSTAR":0.00024843733,"MEAN_MOTION_DOT":6.624e-5,"MEAN_MOTION_DDOT":0},{"OBJECT_NAME":"STARLINK-32623","OBJECT_ID":"2024-224P","EPOCH":"2026-03-09T23:07:50.350944","MEAN_MOTION":15.27601078,"ECCENTRICITY":0.00025283,"INCLINATION":43.0036,"RA_OF_ASC_NODE":159.8747,"ARG_OF_PERICENTER":272.9256,"MEAN_ANOMALY":87.1306,"EPHEMERIS_TYPE":0,"CLASSIFICATION_TYPE":"U","NORAD_CAT_ID":62152,"ELEMENT_SET_NO":999,"REV_AT_EPOCH":7242,"BSTAR":0.00097576233,"MEAN_MOTION_DOT":0.00026704,"MEAN_MOTION_DDOT":0}]
